1 24876U 97035A   21037.77261003  .00000019  00000-0  00000-0 0  9990
2 24876  55.4664 175.0090 0047273  57.6323 302.7876  2.00562371172717
1 26360U 00025A   21037.81890220 -.00000048  00000-0  00000-0 0  9990
2 26360  53.6796  99.4209 0058084 165.3767 209.7166  2.00563369152034
1 26407U 00040A   21037.86447922 -.00000014  00000-0  00000-0 0  9994
2 26407  55.8179 292.9099 0182067 282.3650  86.5871  2.00564309150714
1 27663U 03005A   21037.41739568 -.00000016  00000-0  00000-0 0  9996
2 27663  55.8709 292.7221 0120001  36.3344 135.2221  2.00566990132067
1 27704U 03010A   21037.59461624 -.00000051  00000-0  00000-0 0  9991
2 27704  54.7808  43.4450 0244322 291.2396 222.5173  2.00557709130868
1 28129U 03058A   21037.46589080 -.00000048  00000-0  00000-0 0  9994
2 28129  53.4894 102.1064 0071436 299.4188  59.9217  2.00570343125547
1 28190U 04009A   21036.71021486 -.00000083  00000-0  00000-0 0  9996
2 28190  56.2275 353.5956 0087810 102.0513  73.2824  2.00570470123682
1 28474U 04045A   21037.82357544 -.00000050  00000-0  00000-0 0  9995
2 28474  55.1188  43.3911 0205808 271.1481 264.0244  2.00571199119190
1 28874U 05038A   21037.68482752 -.00000090  00000-0  00000-0 0  9990
2 28874  56.3172 350.9631 0137780 269.3696 270.4544  2.00579145112596
1 29486U 06042A   21037.56024251  .00000095  00000-0  00000-0 0  9993
2 29486  54.8005 229.0250 0099340  12.6465 357.6571  2.00556047105180
1 29601U 06052A   21036.98961720 -.00000015  00000-0  00000-0 0  9992
2 29601  55.8652 291.6618 0080950  66.8796 294.0259  2.00576940104153
1 32260U 07047A   21036.80880575  .00000007  00000-0  00000-0 0  9991
2 32260  53.2149 161.1233 0128666  54.7692 306.4002  2.00575909 97590
1 32384U 07062A   21037.26690310 -.00000087  00000-0  00000-0 0  9991
2 32384  56.4204 351.6807 0013006 129.6450 333.2961  2.00562313 96262
1 32711U 08012A   21037.21399266  .00000096  00000-0  00000-0 0  9991
2 32711  54.5514 228.0875 0145614 225.7628 133.0535  2.00571086 94524
1 35752U 09043A   21037.28436476 -.00000046  00000-0  00000-0 0  9992
2 35752  54.7240 105.5629 0058074  49.2565  23.0964  2.00547201 84118
1 36585U 10022A   21037.28611983 -.00000004  00000-0  00000-0 0  9998
2 36585  55.1386 287.5187 0095872  53.0315 128.0983  2.00563678 78343
1 37753U 11036A   21037.91218778 -.00000043  00000-0  00000+0 0  9999
2 37753  56.3343  48.0595 0101785  45.9940 314.8862  2.00562082 70032
1 38833U 12053A   21037.39401758  .00000092  00000-0  00000-0 0  9997
2 38833  53.5979 223.7009 0107494  40.7799 320.0336  2.00569625 60300
1 39166U 13023A   21037.25912795 -.00000089  00000-0  00000-0 0  9995
2 39166  55.9672 347.5417 0088961  31.5852 328.9419  2.00563457 56636
1 39533U 14008A   21037.75697568  .00000090  00000-0  00000-0 0  9991
2 39533  53.7057 229.1439 0049000 199.3413 160.4944  2.00554060 50460
1 39741U 14026A   21037.03703987 -.00000043  00000-0  00000-0 0  9995
2 39741  56.3045  47.6210 0025046 295.1683  64.6113  2.00560438 49282
1 40105U 14045A   21035.62976084  .00000037  00000-0  00000-0 0  9997
2 40105  54.6122 166.6784 0017515 105.2890 254.8796  2.00575021 46827
1 40294U 14068A   21035.00816498 -.00000028  00000-0  00000-0 0  9996
2 40294  55.4708 107.6802 0030926  46.5899 313.7192  2.00565380 45919
1 40534U 15013A   21037.13819303 -.00000001  00000-0  00000-0 0  9999
2 40534  54.0481 285.2312 0056399  13.0244 347.1802  2.00554172 42578
1 40730U 15033A   21037.30443305 -.00000090  00000-0  00000-0 0  9991
2 40730  55.4782 346.6038 0061648 355.8437   4.1027  2.00578154 40748
1 41019U 15062A   21037.34627557 -.00000045  00000-0  00000-0 0  9991
2 41019  55.4662 107.4190 0065739 212.8143 146.8226  2.00563784 38586
1 41328U 16007A   21036.93949566  .00000018  00000-0  00000-0 0  9994
2 41328  54.8429 167.1729 0046906 222.1814 137.4278  2.00567685 36639
1 43873U 18109A   21037.70598313  .00000009  00000-0  00000-0 0  9992
2 43873  55.0239 169.4570 0011475 198.1057 251.9339  2.00572740 15872
1 44506U 19056A   21037.43997970 -.00000045  00000-0  00000-0 0  9991
2 44506  55.3986  48.8453 0011935 185.4220 328.8203  2.00561810 10820
1 45854U 20041A   21037.30795028 -.00000046  00000-0  00000-0 0  9991
2 45854  55.1786 106.1090 0009193 146.0705 214.0360  2.00567266  4781
